satname,norad_id,inclination_deg,eccentricity,mean_motion_rev_per_day,perigee_km,apogee_km,l1,l2
STARLINK-1451,45668,53.0541,0.0002875,15.07306439,542.4446058509566,546.4250846619798,1 45668U 20035M   26016.47706720  .00033735  00000+0  22178-2 0  9999,2 45668  53.0541 301.2721 0002875  93.2093 266.9225 15.07306439310861
STARLINK-1452,45669,53.0359,0.0004022,15.3609526,454.91984350605253,460.41856601716245,1 45669U 20035N   26016.39006608  .00060102  00000+0  16819-2 0  9992,2 45669  53.0359 269.2157 0004022 146.3559 213.7699 15.36095260311302
STARLINK-1453,45670,53.0536,0.0007272,15.4090251,438.4837530470659,448.4050610454751,1 45670U 20035P   26015.72208350  .00062293  00000+0  14891-2 0  9999,2 45670  53.0536 266.2464 0007272 122.6562 237.5145 15.40902510311175
STARLINK-1454,45671,53.0549,0.0001587,15.18163458,510.2978847960085,512.4846210634878,1 45671U 20035Q   26016.58336806  .01588526  00000+0  69652-1 0  9990,2 45671  53.0549 300.2575 0001587 114.0428  97.2213 15.18163458  5836
STARLINK-1456,45673,53.0553,0.0006865,15.39011753,444.34352796027724,453.71722877077354,1 45673U 20035S   26016.47231824  .00039769  00000+0  10184-2 0  9990,2 45673  53.0553 294.9162 0006865 104.6910 255.4854 15.39011753310953
STARLINK-1457,45674,53.0511,0.0004452,15.57245582,392.61716271530986,398.6485273853423,1 45674U 20035T   26016.58336806  .01487690  00000+0  18192-1 0  9996,2 45674  53.0511 280.2515 0004452  93.9853 100.6028 15.57245582  5969
STARLINK-1458,45675,53.0535,0.0002323,15.17041943,513.1851241591485,516.3875763476753,1 45675U 20035U   26016.58336806  .00108963  00000+0  53754-2 0  9993,2 45675  53.0535 300.3551 0002323  56.3397  43.3522 15.17041943  5380
STARLINK-1460,45676,53.056,0.0001636,15.06397498,546.0862379399287,548.3522144971475,1 45676U 20035V   26016.48624738  .00004007  00000+0  28776-3 0  9998,2 45676  53.0560 300.9700 0001636  82.8812 277.2363 15.06397498310829
STARLINK-1392,45677,53.0542,0.000157,15.06399706,546.1251791410168,548.2997388711437,1 45677U 20035W   26016.49730801  .00001373  00000+0  11109-3 0  9994,2 45677  53.0542 300.9204 0001570  90.3674 269.7494 15.06399706310865
STARLINK-1394,45679,53.0547,0.0005851,15.39782329,442.75919876417083,450.745684388703,1 45679U 20035Y   26016.44727198  .00062004  00000+0  15385-2 0  9993,2 45679  53.0547 285.0213 0005851 109.1434 251.0203 15.39782329311084
STARLINK-1402,45685,53.0526,0.0010587,15.36153087,450.260765728739,464.73453854116997,1 45685U 20035AE  26015.97640792  .00056665  00000+0  15819-2 0  9999,2 45685  53.0526 272.7560 0010587  88.4408 271.7807 15.36153087311223
STARLINK-1404,45686,53.056,0.0001626,15.0639948,546.0870897291816,548.3392135985014,1 45686U 20035AF  26016.45399501  .00001003  00000+0  86253-4 0  9991,2 45686  53.0560 291.1168 0001626  94.9903 265.1271 15.06399480311001
STARLINK-1413,45689,53.0558,0.0001498,15.06395409,546.1882094060056,548.2630480495718,1 45689U 20035AJ  26016.47242480  .00001027  00000+0  87873-4 0  9994,2 45689  53.0558 291.0296 0001498  87.0296 273.0865 15.06395409310910
STARLINK-1417,45693,53.0531,0.0007126,15.09461835,532.9150130846674,542.7716682661967,1 45693U 20035AN  26016.14348999  .00009035  00000+0  57503-3 0  9998,2 45693  53.0531 291.8788 0007126  84.5903 275.5900 15.09461835310952
STARLINK-1420,45695,53.0552,4.53e-05,15.17800271,512.1781046919823,512.8023955208428,1 45695U 20035AQ  26016.58336806  .00131626  00000+0  63310-2 0  9996,2 45695  53.0552 270.2784 0000453  63.5618 321.1683 15.17800271  5823
STARLINK-1422,45696,53.0757,0.0002077,15.11920613,528.9082880435444,531.7780707100583,1 45696U 20035AR  26016.58336806  .00072014  00000+0  41309-2 0  9996,2 45696  53.0757 290.4454 0002077 105.4981 145.1997 15.11920613  5832
STARLINK-1351,45697,53.0542,0.0002406,15.23887009,492.47609823661605,495.78303290796975,1 45697U 20035AS  26016.58336806  .00083917  00000+0  34061-2 0  9998,2 45697  53.0542 269.4627 0002406 101.2628  65.0081 15.23887009  5794
STARLINK-1398,45699,53.0431,0.0005482,15.69690055,356.0900977827823,363.47755417638746,1 45699U 20035AU  26016.58336806  .00208485  00000+0  16831-2 0  9994,2 45699  53.0431 201.1943 0005482 155.5092 330.8297 15.69690055  5886
STARLINK-1400,45700,53.0531,0.0001576,15.1826744,509.99094591712765,512.1624260709541,1 45700U 20035AV  26016.58336806  .00119426  00000+0  56786-2 0  9996,2 45700  53.0531 270.2618 0001576 120.7140 130.8457 15.18267440  5804
STARLINK-1403,45701,53.055,0.0001905,15.0640245,545.8847715814745,548.5233265211637,1 45701U 20035AW  26016.39318170  .00002102  00000+0  15994-3 0  9999,2 45701  53.0550 271.3860 0001905  83.3483 276.7723 15.06402450311262
STARLINK-1407,45703,53.0386,0.0004059,15.49944947,414.1288673407944,419.64506779766725,1 45703U 20035AY  26015.93310310  .00082944  00000+0  14503-2 0  9994,2 45703  53.0386 210.9168 0004059 276.7245  83.3301 15.49944947312082
STARLINK-1411,45706,53.0478,0.0002011,15.52887616,406.93527608574186,409.6647810586328,1 45706U 20035BB  26016.32327977  .00039160  00000+0  62398-3 0  9996,2 45706  53.0478 235.4870 0002011 164.1930 195.9142 15.52887616311766
STARLINK-1423,45710,53.055,0.0001015,15.2030226,504.22952371320116,505.6267859396312,1 45710U 20035BF  26016.58336806  .01685379  00000+0  70163-1 0  9997,2 45710  53.0550 270.0946 0001015  69.2167 328.5083 15.20302260  5839
STARLINK-1433,45711,53.0532,0.0001601,15.25139215,489.2677821357729,491.46707725416036,1 45711U 20035BG  26016.58336806  .00091026  00000+0  35547-2 0  9995,2 45711  53.0532 269.9556 0001601  91.2279 119.5347 15.25139215  5827
STARLINK-1434,45712,53.0528,0.000435,15.20813136,500.3931528103567,506.3800783559127,1 45712U 20035BH  26015.96732741  .00028223  00000+0  12732-2 0  9995,2 45712  53.0528 263.1613 0004350  74.5097 285.6378 15.20813136311352
STARLINK-1465,45731,53.0557,5.43e-05,15.20995844,502.4618772959675,503.2091509109978,1 45731U 20038B   26016.58336806  .00095878  00000+0  42287-2 0  9998,2 45731  53.0557 110.1243 0000543 138.8473 163.8994 15.20995844  5838
STARLINK-1471,45735,53.0505,0.0002681,15.44720197,430.37449053538785,434.02619341815534,1 45735U 20038F   26016.31451752  .00015650  00000+0  33808-3 0  9991,2 45735  53.0505  32.2004 0002681  70.1547 289.9747 15.44720197309420
STARLINK-1474,45738,53.0305,0.0005643,15.85940947,309.90037843726714,317.4527592310533,1 45738U 20038J   26016.28848838  .00147338  00000+0  57989-3 0  9990,2 45738  53.0305 331.3390 0005643 109.6855 250.4778 15.85940947310266
STARLINK-1480,45741,53.0538,0.0005156,15.39041664,445.42187966754045,452.461963451452,1 45741U 20038M   26016.61607388  .00043548  00000+0  11129-2 0  9997,2 45741  53.0538 104.7834 0005156   4.1785 355.9260 15.39041664308433
STARLINK-1500,45744,53.0385,0.0003471,15.31672978,468.4432744210135,473.1978207505481,1 45744U 20038Q   26016.46546479  .00013015  00000+0  43074-3 0  9997,2 45744  53.0385  77.1561 0003471  70.9758 289.1618 15.31672978308801
STARLINK-1504,45746,53.0256,0.0003861,15.49394794,415.87119286393045,421.11955238206974,1 45746U 20038S   26016.30934083  .00019065  00000+0  34888-3 0  9998,2 45746  53.0256  34.1795 0003861  43.0034 317.1274 15.49394794309383
STARLINK-1506,45747,53.0809,0.0004115,15.24143737,490.53021036890823,496.1854506144027,1 45747U 20038T   26016.50365317  .00005373  00000+0  23158-3 0  9994,2 45747  53.0809  83.4331 0004115  81.9260 278.2204 15.24143737308725
STARLINK-1464,45751,53.0538,5.4e-05,15.17629259,512.6357592350696,513.3800028822234,1 45751U 20038X   26016.58336806  .00104739  00000+0  50846-2 0  9997,2 45751  53.0538  90.1944 0000540 351.1664   5.3371 15.17629259  5797
STARLINK-1477,45754,53.0519,0.000194,15.1113543,531.3953512940807,534.07677004162,1 45754U 20038AA  26016.50446231  .00015208  00000+0  91236-3 0  9997,2 45754  53.0519  89.5500 0001940 213.6857 146.4011 15.11135430308634
STARLINK-1478,45755,53.0555,0.0001084,15.44060382,433.4019027896984,434.8788045199717,1 45755U 20038AB  26016.58336806  .00152130  00000+0  32236-2 0  9992,2 45755  53.0555  87.7617 0001084  81.7155 262.3175 15.44060382  5742
STARLINK-1484,45756,53.0098,0.0004765,15.77379559,334.66820712011304,341.0685602507647,1 45756U 20038AC  26016.14664089  .00091277  00000+0  53956-3 0  9999,2 45756  53.0098 323.5014 0004765  98.4535 261.7024 15.77379559310350
STARLINK-1493,45759,53.0558,0.0002242,15.14615234,520.599880314403,523.6939676259108,1 45759U 20038AF  26016.58336806  .00065062  00000+0  34660-2 0  9996,2 45759  53.0558  90.3454 0002242 111.9317  47.2466 15.14615234  5833
STARLINK-1494,45760,53.0513,0.0001262,15.64568678,373.62733997839314,375.3317003880875,1 45760U 20038AG  26016.58336806  .00035654  00000+0  36650-3 0  9994,2 45760  53.0513  48.8187 0001262  63.4948 320.3273 15.64568678  5979
STARLINK-1502,45764,53.0543,0.0001031,15.10929343,532.6518878331372,534.0770394349383,1 45764U 20038AL  26016.58336806  .00063935  00000+0  37758-2 0  9990,2 45764  53.0543  90.4175 0001031 110.8564 192.2534 15.10929343  5822
STARLINK-1470,45772,53.0446,0.0001197,15.23622045,494.1035799984038,495.7489913489935,1 45772U 20038AU  26016.39766146  .00035417  00000+0  14665-2 0  9998,2 45772  53.0446  56.1574 0001197 155.4464 204.6590 15.23622045309091
STARLINK-1482,45773,53.0558,0.0001549,15.06409612,546.1093667709147,548.2548306276913,1 45773U 20038AV  26016.43740800  .00000528  00000+0  54297-4 0  9995,2 45773  53.0558  71.1889 0001549  84.8916 275.2250 15.06409612308887
STARLINK-1496,45780,53.0545,0.0003834,15.38556454,447.7591509101785,452.99525560123584,1 45780U 20038BC  26016.51375317  .00070477  00000+0  18173-2 0  9990,2 45780  53.0545  65.6826 0003834  28.9195 331.2020 15.38556454308955
STARLINK-1497,45781,53.0308,0.0008063,15.85361093,309.91125476199795,320.70510445863783,1 45781U 20038BD  26016.58336806  .00315768  00000+0  12493-2 0  9992,2 45781  53.0308 342.2049 0008063  84.1409 225.4455 15.85361093  6018
